0 DELTA 1 DEB
1 21350U 75052BU  13282.50580919  .00021860  00000-0  82127-2 0  5718
2 21350 099.4679 355.8445 0010888 285.3338 190.7362 14.31513704135543
0 DELTA 1 DEB
1 21350U 75052BU  13283.12423456  .00018931  00000-0  71163-2 0  5723
2 21350 099.4679 356.5183 0011049 283.5579 137.7710 14.31524951135631
0 DELTA 1 DEB
1 21350U 75052BU  13284.17100235  .00018217  00000-0  68456-2 0  5735
2 21350 099.4683 357.6589 0011505 280.4446 132.4400 14.31550770135786
0 DELTA 1 DEB
1 21350U 75052BU  13285.51102811  .00014769  00000-0  55519-2 0  5741
2 21350 099.4688 359.1191 0011997 276.4793 198.5888 14.31587390135974
0 DELTA 1 DEB
1 21350U 75052BU  13286.76934144  .00015028  00000-0  56447-2 0  5752
2 21350 099.4693 000.4905 0012412 273.0191 203.5110 14.31620256136152
0 DELTA 1 DEB
1 21350U 75052BU  13288.15634016  .00025538  00000-0  95542-2 0  5769
2 21350 099.4695 002.0023 0012875 269.6709 151.3559 14.31670815136357
0 DELTA 1 DEB
1 21350U 75052BU  13289.19662104  .00020699  00000-0  77468-2 0  5774
2 21350 099.4696 003.1362 0013190 266.9930 112.7518 14.31708854136501
0 DELTA 1 DEB
1 21350U 75052BU  13290.18147424  .00019514  00000-0  73015-2 0  5787
2 21350 099.4696 004.2102 0013494 264.4505 148.6076 14.31735407136649
0 DELTA 1 DEB
1 21350U 75052BU  13291.45400321  .00018103  00000-0  67705-2 0  5799
2 21350 099.4693 005.5977 0013843 261.3175 227.1320 14.31777129136829
0 DELTA 1 DEB
1 21350U 75052BU  13292.50171352  .00016836  00000-0  62949-2 0  5803
2 21350 099.4691 006.7401 0014152 258.7474 227.0849 14.31808076136975
0 DELTA 1 DEB
1 21350U 75052BU  13293.82877686  .00017999  00000-0  67219-2 0  5819
2 21350 099.4687 008.1868 0014532 255.5686 226.9270 14.31845230137166
0 DELTA 1 DEB
1 21350U 75052BU  13295.28980676  .00019910  00000-0  74250-2 0  5824
2 21350 099.4685 009.7799 0014845 252.2036 197.3249 14.31887302137370
